LEMUR-2-CHANUSIAK       
1 43697U 18088H   20114.49415833  .00002151  00000-0  92498-4 0  9994
2 43697  85.0345 113.8063 0018033 124.0703 236.2254 15.21856452 80472
LEMUR-2-ORZULAK         
1 43731U 18096N   20114.18044797  .00002295  00000-0  84938-4 0  9994
2 43731  97.4260 189.0494 0019039 325.4610  34.5391 15.28571059 78009
LEMUR-2-KOBYSZCZE       
1 43732U 18096P   20114.46118534  .00002210  00000-0  81514-4 0  9991
2 43732  97.4267 189.4607 0019119 324.6075  35.3894 15.28715986 78053
LEMUR-2-DULY            
1 43745U 18096AC  20114.47042233  .00002194  00000-0  80779-4 0  9991
2 43745  97.4259 189.4209 0018976 324.0960  35.9003 15.28795367 78063
LEMUR-2-VLADIMIR        
1 43746U 18096AD  20114.17435763  .00002391  00000-0  87638-4 0  9993
2 43746  97.4259 189.1961 0019069 325.4589  34.5410 15.28843996 78049
LEMUR-2-CHRISTINAHOLT   
1 43882U 18111G   20114.47990844  .00000645  00000-0  61246-4 0  9998
2 43882  97.7078  23.3349 0013134  70.9728 289.2915 14.96829795 70287
LEMUR-2-TINYKEV         
1 43883U 18111H   20114.19515492  .00000221  00000-0  24250-4 0  9994
2 43883  97.7083  23.1063 0013151  70.4183 289.8457 14.96902059 72244
LEMUR-2-REMY-COLTON     
1 43884U 18111J   20114.78595877  .00000122  00000-0  15620-4 0  9996
2 43884  97.7098  23.7450 0013199  67.3048 292.9568 14.96976824 70342
LEMUR-2-GUSTAVO         
1 43885U 18111K   20114.44788486  .00000209  00000-0  23260-4 0  9995
2 43885  97.7095  23.4205 0013204  68.4576 291.8052 14.96930309 70287
LEMUR-2-ZO              
1 43886U 18111L   20114.48757751  .00000901  00000-0  83229-4 0  9991
2 43886  97.7093  23.5502 0012940  69.0785 291.1820 14.97011330 70294
LEMUR-2-NATALIEMURRAY   
1 43887U 18111M   20114.78494538  .00000075  00000-0  11495-4 0  9994
2 43887  97.7100  23.9300 0013166  65.4483 294.8110 14.97137683 72340
LEMUR-2-SARAHBETTYBOO   
1 43888U 18111N   20114.23213852  .00001126  00000-0  10234-3 0  9990
2 43888  97.7108  23.4712 0013291  67.7756 292.4874 14.97182909 72261
LEMUR-2-DAISY-HARPER    
1 43889U 18111P   20114.47704043  .00000555  00000-0  52850-4 0  9990
2 43889  97.7099  23.7625 0012709  66.2067 294.0486 14.97260118 72298
LEMUR-2-JOHANLORAN      
1 44084U 19018G   20114.74141167  .00002633  00000-0  11517-3 0  9990
2 44084  97.4150 176.2978 0013216   8.8545 351.2922 15.22877622 59078
LEMUR-2-BEAUDACIOUS     
1 44085U 19018H   20114.41305425  .00001437  00000-0  64465-4 0  9996
2 44085  97.4150 175.9730 0013483  10.3304 349.8207 15.22749578 59020
LEMUR-2-ELHAM           
1 44086U 19018J   20114.44312474  .00002717  00000-0  11798-3 0  9994
2 44086  97.4156 176.1119 0013368  10.9735 349.1791 15.23098458 59034
LEMUR-2-VICTOR-ANDREW   
1 44087U 19018K   20114.43336814  .00002761  00000-0  11974-3 0  9993
2 44087  97.4156 176.1241 0013222  11.8691 348.2855 15.23134252 59046
LEMUR-2-LILLYJO         
1 44396U 19038L   20114.18704750  .00001594  00000-0  94711-4 0  9992
2 44396  97.5285  76.1664 0023694 320.6674  39.2835 15.12536998 44227
LEMUR-2-WANLI           
1 44402U 19038S   20114.46437523  .00001482  00000-0  88479-4 0  9992
2 44402  97.5291  76.4339 0023799 319.9717  39.9759 15.12473888 44274
LEMUR-2-MORAG           
1 44403U 19038T   20114.46063704  .00001665  00000-0  98841-4 0  9996
2 44403  97.5324  76.5499 0022590 323.7712  36.1988 15.12525702 44272
LEMUR-2-DUSTINTHEWIND   
1 44405U 19038V   20114.17743718  .00001751  00000-0  10344-3 0  9993
2 44405  97.5280  76.1589 0023656 320.4493  39.5011 15.12617273 44230
LEMUR-2-ALEX-MADDY      
1 44407U 19038X   20114.00935953  .00001227  00000-0  74237-4 0  9991
2 44407  97.5326  76.0732 0022773 325.6588  34.3169 15.12333097 44194
LEMUR-2-EJATTA          
1 44409U 19038Z   20114.81921229  .00001866  00000-0  10958-3 0  9991
2 44409  97.5278  76.8219 0023392 317.5493  42.3928 15.12745379 44331
LEMUR-2-GREGROBINSON    
1 44411U 19038AB  20114.40823870  .00001479  00000-0  88389-4 0  9996
2 44411  97.5334  76.4999 0022738 324.7536  35.2190 15.12459859 43931
LEMUR-2-YNDRD           
1 44413U 19038AD  20114.19799539  .00000996  00000-0  60979-4 0  9996
2 44413  97.5319  76.2553 0022616 324.6874  35.2857 15.12340452 44231
LEMUR-2-JPGSQUARED      
1 44855U 19089D   20114.89639245  .00000637  00000-0  58234-4 0  9999
2 44855  36.9671  61.0583 0006723 331.2684  28.7698 14.98835547 20161
LEMUR-2-HIMOMANDDAD     
1 44860U 19089J   20114.90801006  .00000385  00000-0  37862-4 0  9997
2 44860  36.9670  61.1518 0006854 324.3439  35.6868 14.98695643 20168
LEMUR-2-PAPPY           
1 44861U 19089K   20114.90352418  .00000377  00000-0  37201-4 0  9994
2 44861  36.9673  61.1120 0006692 326.9672  33.0677 14.98748355 20101
